{
    "links": {
        "self": "http://www.neowsapp.com/rest/v1/neo/3759002?api_key=iIulBulltgU6a56xZRHN4H3l9WmuAYTsLGpBGhQ2"
    },
    "id": "3759002",
    "neo_reference_id": "3759002",
    "name": "(2016 RF17)",
    "designation": "2016 RF17",
    "nasa_jpl_url": "http://ssd.jpl.nasa.gov/sbdb.cgi?sstr=3759002",
    "absolute_magnitude_h": 23.5,
    "estimated_diameter": {
        "kilometers": {
            "estimated_diameter_min": 0.0530340723,
            "estimated_diameter_max": 0.1185877909
        },
        "meters": {
            "estimated_diameter_min": 53.0340723319,
            "estimated_diameter_max": 118.5877908577
        },
        "miles": {
            "estimated_diameter_min": 0.0329538346,
            "estimated_diameter_max": 0.0736870142
        },
        "feet": {
            "estimated_diameter_min": 173.9963058693,
            "estimated_diameter_max": 389.0675677576
        }
    },
    "is_potentially_hazardous_asteroid": false,
    "close_approach_data": [
        {
            "close_approach_date": "2016-07-31",
            "close_approach_date_full": "2016-Jul-31 03:09",
            "epoch_date_close_approach": 1469934540000,
            "relative_velocity": {
                "kilometers_per_second": "4.2450994941",
                "kilometers_per_hour": "15282.3581787251",
                "miles_per_hour": "9495.8630583306"
            },
            "miss_distance": {
                "astronomical": "0.1930100235",
                "lunar": "75.0808991415",
                "kilometers": "28873888.404249945",
                "miles": "17941402.300521441"
            },
            "orbiting_body": "Earth"
        }
    ],
    "orbital_data": {
        "orbit_id": "4",
        "orbit_determination_date": "2017-04-06 08:24:09",
        "first_observation_date": "2016-09-04",
        "last_observation_date": "2016-09-12",
        "data_arc_in_days": 8,
        "observations_used": 22,
        "orbit_uncertainty": "9",
        "minimum_orbit_intersection": ".191008",
        "jupiter_tisserand_invariant": "3.610",
        "epoch_osculation": "2457637.5",
        "eccentricity": ".4310976209981811",
        "semi_major_axis": "2.109689599604103",
        "inclination": "5.761206194533497",
        "ascending_node_longitude": "332.6288695683488",
        "orbital_period": "1119.247852307411",
        "perihelion_distance": "1.200207432170169",
        "perihelion_argument": "332.3984579035142",
        "aphelion_distance": "3.019171767038038",
        "perihelion_time": "2457595.779453418586",
        "mean_anomaly": "13.41918748233062",
        "mean_motion": ".3216445752009563",
        "equinox": "J2000",
        "orbit_class": {
            "orbit_class_type": "AMO",
            "orbit_class_description": "Near-Earth asteroid orbits similar to that of 1221 Amor",
            "orbit_class_range": "1.017 AU < q (perihelion) < 1.3 AU"
        }
    },
    "is_sentry_object": false
}